NORAD_CAT_ID,OBJECT_NAME,OBJECT_TYPE,EPOCH,MEAN_MOTION,ECCENTRICITY,INCLINATION,RA_OF_ASC_NODE,ARG_OF_PERICENTER,MEAN_ANOMALY,BSTAR,MEAN_MOTION_DOT,MEAN_MOTION_DDOT,TLE_LINE0,TLE_LINE1,TLE_LINE2,SEMIMAJOR_AXIS,PERIOD,APOGEE,PERIGEE,DECAYED
51879.0,STARLINK-3572,PAYLOAD,2022-08-03 22:00:01,15.08857501,0.0002314,53.2151,136.8736,64.2772,337.14300000000014,-0.0031772,-0.00050525,0.0,0 STARLINK-3572,1 51879U 22022AD  22215.91668981 -.00050525  00000-0 -31772-2 0  9999,2 51879  53.2151 136.8736 0002314  64.2772 337.1430 15.08857501  1306,6917.8269999999975,95.436,541.293,538.091,0.0
51879.0,STARLINK-3572,PAYLOAD,2022-08-04 14:00:01,15.08815713,0.0002262,53.2152,133.8801,64.4011,0.1377,0.0020053,0.0003174999999999,0.0,0 STARLINK-3572,1 51879U 22022AD  22216.58334491  .00031750  00000-0  20053-2 0  9996,2 51879  53.2152 133.8801 0002262  64.4011   0.1377 15.08815713 25017,6917.955,95.439,541.384,538.255,0.0
51879.0,STARLINK-3572,PAYLOAD,2022-08-04 22:00:00,15.08856301,0.0002391,53.2153,132.3843,64.5799,11.5356,-0.0017402,-0.00027891,0.0,0 STARLINK-3572,1 51879U 22022AD  22216.91667824 -.00027891  00000-0 -17402-2 0  9999,2 51879  53.2153 132.3843 0002391  64.5799  11.5356 15.08856301  1302,6917.831,95.437,541.35,538.0419999999998,0.0
51879.0,STARLINK-3572,PAYLOAD,2022-08-05 14:00:01,15.08844451,0.0002289,53.2156,129.3906,65.319,34.0723,-0.00039239,-6.529e-05,0.0,0 STARLINK-3572,1 51879U 22022AD  22217.58335648 -.00006529  00000-0 -39239-3 0  9997,2 51879  53.2156 129.3906 0002289  65.3190  34.0723 15.08844451 25162,6917.8669999999975,95.437,541.315,538.148,0.0
51879.0,STARLINK-3572,PAYLOAD,2022-08-05 22:00:00,15.08845791,0.000235,53.2157,127.8949,64.4462,46.4801,-0.001628,-0.0002611,0.0,0 STARLINK-3572,1 51879U 22022AD  22217.91667824 -.00026110  00000-0 -16280-2 0  9996,2 51879  53.2157 127.8949 0002350  64.4462  46.4801 15.08845791  1306,6917.863,95.437,541.3530000000002,538.102,0.0
51879.0,STARLINK-3572,PAYLOAD,2022-08-06 03:52:11,15.08853211,0.0002278,53.2179,126.7967,69.7373,290.3864,-0.000144,-2.58e-05,0.0,0 STARLINK-3572,1 51879U 22022AD  22218.16124569 -.00002580  00000-0 -14400-3 0  9996,2 51879  53.2179 126.7967 0002278  69.7373 290.3864 15.08853211 25251,6917.84,95.437,541.281,538.129,0.0
51879.0,STARLINK-3572,PAYLOAD,2022-08-06 14:00:01,15.08830089,0.0002241,53.216,124.9013,66.0602,68.05199999999999,0.00052968,8.149999999999999e-05,0.0,0 STARLINK-3572,1 51879U 22022AD  22218.58334491  .00008150  00000-0  52968-3 0  9997,2 51879  53.2160 124.9013 0002241  66.0602  68.0520 15.08830089 25312,6917.911,95.438,541.326,538.225,0.0
51879.0,STARLINK-3572,PAYLOAD,2022-08-06 21:21:26,15.08840157,0.0002336999999999,53.2171,123.526,66.645,293.4788,3.8859e-05,3.3e-06,0.0,0 STARLINK-3572,1 51879U 22022AD  22218.88989031  .00000330  00000-0  38859-4 0  9992,2 51879  53.2171 123.5260 0002337  66.6450 293.4788 15.08840157 25368,6917.88,95.438,541.362,538.128,0.0
51879.0,STARLINK-3572,PAYLOAD,2022-08-07 10:04:32,15.08837555,0.0002353,53.2176,121.1469,62.1263,297.9967,-3.7323e-05,-8.82e-06,0.0,0 STARLINK-3572,1 51879U 22022AD  22219.41981520 -.00000882  00000-0 -37323-4 0  9996,2 51879  53.2176 121.1469 0002353  62.1263 297.9967 15.08837555 25444,6917.888000000001,95.438,541.381,538.125,0.0
51879.0,STARLINK-3572,PAYLOAD,2022-08-07 21:12:14,15.08834735,0.0002283,53.2174,119.0663,67.1621,292.9612,1.7828e-05,-5e-08,0.0,0 STARLINK-3572,1 51879U 22022AD  22219.88349554 -.00000005  00000-0  17828-4 0  9996,2 51879  53.2174 119.0663 0002283  67.1621 292.9612 15.08834735 25516,6917.896,95.438,541.341,538.182,0.0
51879.0,STARLINK-3572,PAYLOAD,2022-08-08 14:00:01,15.08854194,0.0002125,53.2164,115.9231,70.2804,133.4748,0.00095367,0.00014928,0.0,0 STARLINK-3572,1 51879U 22022AD  22220.58335648  .00014928  00000-0  95367-3 0  9995,2 51879  53.2164 115.9231 0002125  70.2804 133.4748 15.08854194 25615,6917.837,95.437,541.172,538.232,0.0
51879.0,STARLINK-3572,PAYLOAD,2022-08-08 22:00:00,15.08866081,0.000213,53.2165,114.4282,67.4543,147.8611,-0.0018903,-0.00030269,0.0,0 STARLINK-3572,1 51879U 22022AD  22220.91667824 -.00030269  00000-0 -18903-2 0  9994,2 51879  53.2165 114.4282 0002130  67.4543 147.8611 15.08866081  1306,6917.801,95.436,541.139,538.192,0.0
51879.0,STARLINK-3572,PAYLOAD,2022-08-09 06:00:00,15.08853988,0.0002043,53.2162,112.9322,63.5148,163.408,-0.002957,-0.00047061,0.0,0 STARLINK-3572,1 51879U 22022AD  22221.25001157 -.00047061  00000-0 -29570-2 0  9993,2 51879  53.2162 112.9322 0002043  63.5148 163.4080 15.08853988 25719,6917.8380000000025,95.437,541.116,538.289,0.0
51879.0,STARLINK-3572,PAYLOAD,2022-08-09 14:00:01,15.08789728,0.0001855999999999,53.2162,111.4343,69.2643,169.2537,0.0026111,0.00041455,0.0,0 STARLINK-3572,1 51879U 22022AD  22221.58334491  .00041455  00000-0  26111-2 0  9996,2 51879  53.2162 111.4343 0001856  69.2643 169.2537 15.08789728  1300,6918.034000000002,95.441,541.183,538.615,0.0
51879.0,STARLINK-3572,PAYLOAD,2022-08-09 22:00:00,15.0882043,0.0001962,53.2162,109.9396,66.0841,183.9847,-0.00075697,-0.00012309,0.0,0 STARLINK-3572,1 51879U 22022AD  22221.91667824 -.00012309  00000-0 -75697-3 0  9994,2 51879  53.2162 109.9396 0001962  66.0841 183.9847 15.08820430 25818,6917.94,95.439,541.163,538.448,0.0
51879.0,STARLINK-3572,PAYLOAD,2022-08-10 14:00:01,15.08807972,0.0001911,53.2159,106.9455,70.653,202.5651,0.0031828,0.00050687,0.0,0 STARLINK-3572,1 51879U 22022AD  22222.58334491  .00050687  00000-0  31828-2 0  9995,2 51879  53.2159 106.9455 0001911  70.6530 202.5651 15.08807972  1302,6917.978,95.44,541.165,538.521,0.0
51879.0,STARLINK-3572,PAYLOAD,2022-08-10 17:07:18,15.08835379,0.0001961,53.2161,106.3621,71.9477,188.1513,0.00055933,8.624e-05,0.0,0 STARLINK-3572,1 51879U 22022AD  22222.71341435  .00008624  00000-0  55933-3 0  9994,2 51879  53.2161 106.3621 0001961  71.9477 188.1513 15.08835379 25936,6917.895,95.438,541.116,538.403,0.0
51879.0,STARLINK-3572,PAYLOAD,2022-08-10 22:00:00,15.08840811,0.0002026,53.2159,105.4508,66.8093,217.9842,-0.00072969,-0.00011883,0.0,0 STARLINK-3572,1 51879U 22022AD  22222.91667824 -.00011883  00000-0 -72969-3 0  9990,2 51879  53.2159 105.4508 0002026  66.8093 217.9842 15.08840811  1305,6917.878000000002,95.438,541.144,538.341,0.0
51879.0,STARLINK-3572,PAYLOAD,2022-08-11 14:00:01,15.08805298,0.0001874,53.2158,102.4564,70.3693,237.6226,0.0021244,0.00033652,0.0,0 STARLINK-3572,1 51879U 22022AD  22223.58334491  .00033652  00000-0  21244-2 0  9990,2 51879  53.2158 102.4564 0001874  70.3693 237.6226 15.08805298  1304,6917.986,95.44,541.148,538.555,0.0
51879.0,STARLINK-3572,PAYLOAD,2022-08-11 22:00:00,15.08828623,0.0001976999999999,53.2158,100.9616,65.3656,254.1948,-0.00065425,-0.00010682,0.0,0 STARLINK-3572,1 51879U 22022AD  22223.91667824 -.00010682  00000-0 -65425-3 0  9996,2 51879  53.2158 100.9616 0001977  65.3656 254.1948 15.08828623 26110,6917.915,95.438,541.148,538.4119999999998,0.0
51879.0,STARLINK-3572,PAYLOAD,2022-08-12 14:00:01,15.08825882,0.0001904,53.2159,97.9671,70.4995,272.2422,0.0033339,0.00053151,0.0,0 STARLINK-3572,1 51879U 22022AD  22224.58334491  .00053151  00000-0  33339-2 0  9995,2 51879  53.2159  97.9671 0001904  70.4995 272.2422 15.08825882 26213,6917.924,95.438,541.106,538.471,0.0
51879.0,STARLINK-3572,PAYLOAD,2022-08-12 22:00:01,15.08865458,0.0001998,53.2159,96.4722,65.1097,289.2894,-0.0021881,-0.00034968,0.0,0 STARLINK-3572,1 51879U 22022AD  22224.91668981 -.00034968  00000-0 -21881-2 0  9992,2 51879  53.2159  96.4722 0001998  65.1097 289.2894 15.08865458  1308,6917.803000000001,95.436,541.05,538.285,0.0
51879.0,STARLINK-3572,PAYLOAD,2022-08-13 06:00:02,15.08866396,0.0001865,53.2159,94.9753,62.5639,303.443,-0.0048008999999999,-0.00075946,0.0,0 STARLINK-3572,1 51879U 22022AD  22225.25002315 -.00075946  00000-0 -48009-2 0  9995,2 51879  53.2159  94.9753 0001865  62.5639 303.4430 15.08866396 26327,6917.8,95.436,540.955,538.375,0.0
51879.0,STARLINK-3572,PAYLOAD,2022-08-13 14:00:01,15.08794338,0.000174,53.2161,93.4775,68.9886,308.555,0.002853,0.00045353,0.0,0 STARLINK-3572,1 51879U 22022AD  22225.58334491  .00045353  00000-0  28530-2 0  9998,2 51879  53.2161  93.4775 0001740  68.9886 308.5550 15.08794338  1300,6918.02,95.44,541.089,538.681,0.0
51879.0,STARLINK-3572,PAYLOAD,2022-08-13 22:00:00,15.08822352,0.0001869,53.2161,91.9828,63.2989,325.8054,-0.00045121,-7.459e-05,0.0,0 STARLINK-3572,1 51879U 22022AD  22225.91667824 -.00007459  00000-0 -45121-3 0  9997,2 51879  53.2161  91.9828 0001869  63.2989 325.8054 15.08822352  1305,6917.934,95.439,541.092,538.506,0.0
51879.0,STARLINK-3572,PAYLOAD,2022-08-14 14:00:01,15.08821557,0.0001757,53.2163,88.9881,70.3903,341.8691,0.0025751,0.00040912,0.0,0 STARLINK-3572,1 51879U 22022AD  22226.58334491  .00040912  00000-0  25751-2 0  9997,2 51879  53.2163  88.9881 0001757  70.3903 341.8691 15.08821557  1304,6917.937,95.439,541.0169999999998,538.586,0.0
51879.0,STARLINK-3572,PAYLOAD,2022-08-14 22:00:00,15.0884238,0.0001876999999999,53.2163,87.4933,64.3928,359.4554,-0.00029777,-5.024e-05,0.0,0 STARLINK-3572,1 51879U 22022AD  22226.91667824 -.00005024  00000-0 -29777-3 0  9993,2 51879  53.2163  87.4933 0001877  64.3928 359.4554 15.08842380  1309,6917.873000000001,95.437,541.0369999999998,538.44,0.0
51879.0,STARLINK-3572,PAYLOAD,2022-08-15 06:00:00,15.08863859,0.0001785,53.2161,85.9961,64.5124,10.9269,-0.0019647,-0.00031441,0.0,0 STARLINK-3572,1 51879U 22022AD  22227.25001157 -.00031441  00000-0 -19647-2 0  9998,2 51879  53.2161  85.9961 0001785  64.5124  10.9269 15.08863859 26627,6917.807,95.436,540.9069999999998,538.438,0.0
51879.0,STARLINK-3572,PAYLOAD,2022-08-15 14:00:01,15.08841426,0.0001681,53.2164,84.4986,71.6226,15.427,-0.0004512999999999,-7.464e-05,0.0,0 STARLINK-3572,1 51879U 22022AD  22227.58334491 -.00007464  00000-0 -45130-3 0  9999,2 51879  53.2164  84.4986 0001681  71.6226  15.4270 15.08841426  1304,6917.876,95.437,540.904,538.578,0.0
